{"type": "FeatureCollection", "features": [ {"type": "Feature", "properties": {"norad_id": 29820, "name": "FENGYUN 1C DEB", "group": "fengyun-1c-debris", "lat": -26.330708683776216, "lon": 11.767299014612977, "alt_km": 927.2792155714424, "timestamp": "2025-12-26T17:24:54.991042+00:00", "meta": {"OBJECT_NAME": "FENGYUN 1C DEB", "OBJECT_ID": "1999-025DN", "EPOCH": "2025-12-26T07:20:57.605856", "MEAN_MOTION": 14.02633411, "ECCENTRICITY": 0.00724532, "INCLINATION": 98.8331, "RA_OF_ASC_NODE": 6.947, "ARG_OF_PERICENTER": 199.6707, "MEAN_ANOMALY": 176.5214, "EPHEMERIS_TYPE": 0, "CLASSIFICATION_TYPE": "U", "NORAD_CAT_ID": 29820, "ELEMENT_SET_NO": 999, "REV_AT_EPOCH": 96750, "BSTAR": 0.00065975405, "MEAN_MOTION_DOT": 9.99e-06, "MEAN_MOTION_DDOT": 0}, "tle": {"line1": "1 29820U 99025DN  25360.30622229  .00000999  00000+0  65975-3 0  9999", "line2": "2 29820  98.8331   6.9470 0072453 199.6707 176.5214 14.02633411967509"}}, "geometry": {"type": "Point", "coordinates": [11.767299014612977, -26.330708683776216]}}, {"type": "Feature", "properties": {"norad_id": 29821, "name": "FENGYUN 1C DEB", "group": "fengyun-1c-debris", "lat": 81.06025173270666, "lon": -27.578637221771807, "alt_km": 578.1988093904238, "timestamp": "2025-12-26T17:24:54.991052+00:00", "meta": {"OBJECT_NAME": "FENGYUN 1C DEB", "OBJECT_ID": "1999-025DP", "EPOCH": "2025-12-26T03:40:21.703008", "MEAN_MOTION": 14.11122317, "ECCENTRICITY": 0.03762071, "INCLINATION": 98.8717, "RA_OF_ASC_NODE": 55.0194, "ARG_OF_PERICENTER": 82.7823, "MEAN_ANOMALY": 338.3432, "EPHEMERIS_TYPE": 0, "CLASSIFICATION_TYPE": "U", "NORAD_CAT_ID": 29821, "ELEMENT_SET_NO": 999, "REV_AT_EPOCH": 96700, "BSTAR": 0.00050948868, "MEAN_MOTION_DOT": 1.74e-05, "MEAN_MOTION_DDOT": 0}, "tle": {"line1": "1 29821U 99025DP  25360.15302897  .00001740  00000+0  50949-3 0  9999", "line2": "2 29821  98.8717  55.0194 0376207  82.7823 338.3432 14.11122317967004"}}, "geometry": {"type": "Point", "coordinates": [-27.578637221771807, 81.06025173270666]}}, {"type": "Feature", "properties": {"norad_id": 29827, "name": "FENGYUN 1C DEB", "group": "fengyun-1c-debris", "lat": -62.75325437372915, "lon": 154.4751417366506, "alt_km": 812.5914178948688, "timestamp": "2025-12-26T17:24:54.991062+00:00", "meta": {"OBJECT_NAME": "FENGYUN 1C DEB", "OBJECT_ID": "1999-025DV", "EPOCH": "2025-12-24T22:22:20.292384", "MEAN_MOTION": 14.21704833, "ECCENTRICITY": 0.0024566, "INCLINATION": 98.6034, "RA_OF_ASC_NODE": 349.8237, "ARG_OF_PERICENTER": 286.1154, "MEAN_ANOMALY": 144.0752, "EPHEMERIS_TYPE": 0, "CLASSIFICATION_TYPE": "U", "NORAD_CAT_ID": 29827, "ELEMENT_SET_NO": 999, "REV_AT_EPOCH": 98036, "BSTAR": 0.00031686, "MEAN_MOTION_DOT": 6.55e-06, "MEAN_MOTION_DDOT": 0}, "tle": {"line1": "1 29827U 99025DV  25358.93217931  .00000655  00000+0  31686-3 0  9993", "line2": "2 29827  98.6034 349.8237 0024566 286.1154 144.0752 14.21704833980368"}}, "geometry": {"type": "Point", "coordinates": [154.4751417366506, -62.75325437372915]}}, {"type": "Feature", "properties": {"norad_id": 29828, "name": "FENGYUN 1C DEB", "group": "fengyun-1c-debris", "lat": -19.171730681682345, "lon": 48.87759947717738, "alt_km": 902.7157633144652, "timestamp": "2025-12-26T17:24:54.991072+00:00", "meta": {"OBJECT_NAME": "FENGYUN 1C DEB", "OBJECT_ID": "1999-025DW", "EPOCH": "2025-12-26T02:28:52.883040", "MEAN_MOTION": 14.08199319, "ECCENTRICITY": 0.00613806, "INCLINATION": 98.769, "RA_OF_ASC_NODE": 45.1967, "ARG_OF_PERICENTER": 119.0087, "MEAN_ANOMALY": 309.4457, "EPHEMERIS_TYPE": 0, "CLASSIFICATION_TYPE": "U", "NORAD_CAT_ID": 29828, "ELEMENT_SET_NO": 999, "REV_AT_EPOCH": 96925, "BSTAR": 0.00065707416, "MEAN_MOTION_DOT": 1.099e-05, "MEAN_MOTION_DDOT": 0}, "tle": {"line1": "1 29828U 99025DW  25360.10338985  .00001099  00000+0  65707-3 0  9993", "line2": "2 29828  98.7690  45.1967 0061380 119.0087 309.4457 14.08199319969254"}}, "geometry": {"type": "Point", "coordinates": [48.87759947717738, -19.171730681682345]}}, {"type": "Feature", "properties": {"norad_id": 29832, "name": "FENGYUN 1C DEB", "group": "fengyun-1c-debris", "lat": -70.77353097429697, "lon": 139.40306982318268, "alt_km": 617.0812524052453, "timestamp": "2025-12-26T17:24:54.991082+00:00", "meta": {"OBJECT_NAME": "FENGYUN 1C DEB", "OBJECT_ID": "1999-025EA", "EPOCH": "2025-12-26T06:12:25.531776", "MEAN_MOTION": 14.56584171, "ECCENTRICITY": 0.01923265, "INCLINATION": 98.8194, "RA_OF_ASC_NODE": 112.4744, "ARG_OF_PERICENTER": 241.6734, "MEAN_ANOMALY": 116.4945, "EPHEMERIS_TYPE": 0, "CLASSIFICATION_TYPE": "U", "NORAD_CAT_ID": 29832, "ELEMENT_SET_NO": 999, "REV_AT_EPOCH": 452, "BSTAR": 0.00022680806, "MEAN_MOTION_DOT": 1.234e-05, "MEAN_MOTION_DDOT": 0}, "tle": {"line1": "1 29832U 99025EA  25360.25862884  .00001234  00000+0  22681-3 0  9999", "line2": "2 29832  98.8194 112.4744 0192326 241.6734 116.4945 14.56584171  4521"}}, "geometry": {"type": "Point", "coordinates": [139.40306982318268, -70.77353097429697]}}, {"type": "Feature", "properties": {"norad_id": 29833, "name": "FENGYUN 1C DEB", "group": "fengyun-1c-debris", "lat": -55.734858627024174, "lon": 151.56246922938544, "alt_km": 544.4589270235392, "timestamp": "2025-12-26T17:24:54.991092+00:00", "meta": {"OBJECT_NAME": "FENGYUN 1C DEB", "OBJECT_ID": "1999-025EB", "EPOCH": "2025-12-25T21:02:02.026176", "MEAN_MOTION": 14.91381556, "ECCENTRICITY": 0.0088676, "INCLINATION": 99.0781, "RA_OF_ASC_NODE": 344.1599, "ARG_OF_PERICENTER": 214.4924, "MEAN_ANOMALY": 145.0517, "EPHEMERIS_TYPE": 0, "CLASSIFICATION_TYPE": "U", "NORAD_CAT_ID": 29833, "ELEMENT_SET_NO": 999, "REV_AT_EPOCH": 767, "BSTAR": 0.00093418, "MEAN_MOTION_DOT": 9.986e-05, "MEAN_MOTION_DDOT": 0}, "tle": {"line1": "1 29833U 99025EB  25359.87641234  .00009986  00000+0  93418-3 0  9998", "line2": "2 29833  99.0781 344.1599 0088676 214.4924 145.0517 14.91381556  7673"}}, "geometry": {"type": "Point", "coordinates": [151.56246922938544, -55.734858627024174]}}, {"type": "Feature", "properties": {"norad_id": 29835, "name": "FENGYUN 1C DEB", "group": "fengyun-1c-debris", "lat": 4.233448758754117, "lon": -49.37241095328494, "alt_km": 868.944437136186, "timestamp": "2025-12-26T17:24:54.991103+00:00", "meta": {"OBJECT_NAME": "FENGYUN 1C DEB", "OBJECT_ID": "1999-025ED", "EPOCH": "2025-12-25T07:27:05.630112", "MEAN_MOTION": 14.43379478, "ECCENTRICITY": 0.0167289, "INCLINATION": 99.0263, "RA_OF_ASC_NODE": 128.4538, "ARG_OF_PERICENTER": 0.0108, "MEAN_ANOMALY": 26.3953, "EPHEMERIS_TYPE": 0, "CLASSIFICATION_TYPE": "U", "NORAD_CAT_ID": 29835, "ELEMENT_SET_NO": 999, "REV_AT_EPOCH": 99676, "BSTAR": 5.2205e-05, "MEAN_MOTION_DOT": 1.5e-06, "MEAN_MOTION_DDOT": 0}, "tle": {"line1": "1 29835U 99025ED  25359.31048183  .00000150  00000+0  52205-4 0  9997", "line2": "2 29835  99.0263 128.4538 0167289   0.0108  26.3953 14.43379478996766"}}, "geometry": {"type": "Point", "coordinates": [-49.37241095328494, 4.233448758754117]}}, {"type": "Feature", "properties": {"norad_id": 29836, "name": "FENGYUN 1C DEB", "group": "fengyun-1c-debris", "lat": -65.93518222540372, "lon": -102.4375246412122, "alt_km": 713.7347689153967, "timestamp": "2025-12-26T17:24:54.991113+00:00", "meta": {"OBJECT_NAME": "FENGYUN 1C DEB", "OBJECT_ID": "1999-025EE", "EPOCH": "2025-12-26T05:02:38.451264", "MEAN_MOTION": 14.54187489, "ECCENTRICITY": 0.01551047, "INCLINATION": 98.1873, "RA_OF_ASC_NODE": 95.865, "ARG_OF_PERICENTER": 160.8069, "MEAN_ANOMALY": 267.7316, "EPHEMERIS_TYPE": 0, "CLASSIFICATION_TYPE": "U", "NORAD_CAT_ID": 29836, "ELEMENT_SET_NO": 999, "REV_AT_EPOCH": 63751, "BSTAR": 0.00067427195, "MEAN_MOTION_DOT": 3.3e-05, "MEAN_MOTION_DDOT": 0}, "tle": {"line1": "1 29836U 99025EE  25360.21016726  .00003300  00000+0  67427-3 0  9998", "line2": "2 29836  98.1873  95.8650 0155104 160.8069 267.7316 14.54187489637510"}}, "geometry": {"type": "Point", "coordinates": [-102.4375246412122, -65.93518222540372]}}, {"type": "Feature", "properties": {"norad_id": 29841, "name": "FENGYUN 1C DEB", "group": "fengyun-1c-debris", "lat": -54.06645297329717, "lon": 116.08001348106549, "alt_km": 663.9056702696671, "timestamp": "2025-12-26T17:24:54.991123+00:00", "meta": {"OBJECT_NAME": "FENGYUN 1C DEB", "OBJECT_ID": "1999-025EK", "EPOCH": "2025-12-25T14:35:28.580352", "MEAN_MOTION": 14.46532611, "ECCENTRICITY": 0.0199711, "INCLINATION": 98.8206, "RA_OF_ASC_NODE": 307.2874, "ARG_OF_PERICENTER": 294.9676, "MEAN_ANOMALY": 244.9525, "EPHEMERIS_TYPE": 0, "CLASSIFICATION_TYPE": "U", "NORAD_CAT_ID": 29841, "ELEMENT_SET_NO": 999, "REV_AT_EPOCH": 99509, "BSTAR": 0.00050499, "MEAN_MOTION_DOT": 2.272e-05, "MEAN_MOTION_DDOT": 0}, "tle": {"line1": "1 29841U 99025EK  25359.60796968  .00002272  00000+0  50499-3 0  9996", "line2": "2 29841  98.8206 307.2874 0199711 294.9676 244.9525 14.46532611995097"}}, "geometry": {"type": "Point", "coordinates": [116.08001348106549, -54.06645297329717]}}, {"type": "Feature", "properties": {"norad_id": 29842, "name": "FENGYUN 1C DEB", "group": "fengyun-1c-debris", "lat": -77.88624894173526, "lon": -135.88417245902633, "alt_km": 756.7566855770247, "timestamp": "2025-12-26T17:24:54.991133+00:00", "meta": {"OBJECT_NAME": "FENGYUN 1C DEB", "OBJECT_ID": "1999-025EL", "EPOCH": "2025-12-26T04:51:34.752384", "MEAN_MOTION": 14.60424992, "ECCENTRICITY": 0.01088988, "INCLINATION": 98.5678, "RA_OF_ASC_NODE": 88.1959, "ARG_OF_PERICENTER": 124.1094, "MEAN_ANOMALY": 267.5834, "EPHEMERIS_TYPE": 0, "CLASSIFICATION_TYPE": "U", "NORAD_CAT_ID": 29842, "ELEMENT_SET_NO": 999, "REV_AT_EPOCH": 99550, "BSTAR": 0.001183289, "MEAN_MOTION_DOT": 6.18e-05, "MEAN_MOTION_DDOT": 0}, "tle": {"line1": "1 29842U 99025EL  25360.20248556  .00006180  00000+0  11833-2 0  9990", "line2": "2 29842  98.5678  88.1959 0108898 124.1094 267.5834 14.60424992995509"}}, "geometry": {"type": "Point", "coordinates": [-135.88417245902633, -77.88624894173526]}}]}